COSMOS 2407             
1 28380U 04028A   26177.16340183  .00000045  00000+0  30198-4 0  9997
2 28380  82.9604  68.1861 0038112 225.9386 245.6754 13.76335350101115
COSMOS 2414             
1 28521U 05002A   26177.11557954  .00000049  00000+0  27849-4 0  9991
2 28521  82.9493  36.8920 0038942 305.2235  54.5285 13.87926949 85054
INMARSAT 4-F1           
1 28628U 05009A   26176.47753097  .00000038  00000+0  00000+0 0  9993
2 28628   5.1798  42.7746 0002926  51.9837 168.8779  1.00272513 77753
SJ-7                    
1 28737U 05024A   26176.96849330  .00009740  00000+0  43248-3 0  9995
2 28737  97.7283 207.3081 0015403   8.2170 351.9314 15.21667162149363
CUBESAT XI-V            
1 28895U 05043F   26177.16763213  .00001420  00000+0  23083-3 0  9991
2 28895  98.2992 332.9782 0014260 172.0864 188.0570 14.72654217103077
HINODE (SOLAR-B)        
1 29479U 06041A   26176.97435431  .00000666  00000+0  12278-3 0  9990
2 29479  98.0544 192.9974 0015969 259.3200 100.6207 14.68633887 56163
SHIJIAN-6 02B (SJ-6 02B)
1 29506U 06046B   26177.21033079  .00001306  00000+0  10574-3 0  9995
2 29506  97.7163 206.2137 0015334  35.1005 325.1226 15.01396984 72093
DMSP 5D-3 F17 (USA 191) 
1 29522U 06050A   26177.15002792  .00000031  00000+0  38527-4 0  9992
2 29522  98.7378 183.5367 0010806  35.9970 324.1930 14.14993944 13694
LAPAN-TUBSAT            
1 29709U 07001A   26177.14295391  .00000349  00000+0  46572-4 0  9995
2 29709  98.1344 176.5686 0012640 150.8452 209.3471 14.85956595 52487
HAIYANG-1B              
1 31113U 07010A   26176.95474794  .00000092  00000+0  50799-4 0  9992
2 31113  98.3498 158.4600 0013624 170.0353 190.1103 14.31028992  1893
COSMO-SKYMED 2          
1 32376U 07059A   26177.13994006  .00000433  00000+0  60939-4 0  9997
2 32376  97.8888   0.6080 0001357  88.0987 272.0381 14.82152133  3333
CARTOSAT-2A             
1 32783U 08021A   26177.17838049  .00001159  00000+0  16244-3 0  9992
2 32783  97.7634 225.5802 0013363  83.0508 277.2224 14.79252641980133
CUTE-1.7+APD II (CO-65) 
1 32785U 08021C   26177.13150528  .00005311  00000+0  33500-3 0  9997
2 32785  97.8274 158.7363 0008876  11.8125 348.3310 15.09532817986549
SEEDS II (CO-66)        
1 32791U 08021J   26176.94816340  .00021509  00000+0  67552-3 0  9994
2 32791  97.7517 175.2655 0000427 222.9381 137.1827 15.33033686988632
YUBILEINY (RS30)        
1 32953U 08025A   26177.19248263  .00000071  00000+0  44185-3 0  9997
2 32953  82.5047 349.8376 0018580 293.2108  66.7015 12.43180016820817
FENGYUN 3A              
1 32958U 08026A   26176.71680390  .00000064  00000+0  50621-4 0  9996
2 32958  98.6884 117.3905 0009859 101.6563 258.5720 14.19572796936616
HUANJING 1A (HJ-1A)     
1 33320U 08041A   26177.20156846  .00001958  00000+0  24042-3 0  9996
2 33320  97.6684 162.6915 0020574 106.9990 253.3481 14.84008322959747
HUANJING 1B (HJ-1B)     
1 33321U 08041B   26177.24220981  .00000501  00000+0  66705-4 0  9999
2 33321  97.6520 165.8747 0036834 151.3833 208.9413 14.83329134959759
SHIJIAN-6 03A (SJ-6 03A)
1 33408U 08053A   26177.15023132  .00005006  00000+0  25490-3 0  9997
2 33408  97.8412 210.7822 0010721 350.2795   9.8229 15.17246058964328
SHIJIAN-6 03B (SJ-6 03B)
1 33409U 08053B   26177.21262905  .00001828  00000+0  13535-3 0  9993
2 33409  97.8561 197.2533 0019745  14.3476 345.8306 15.04324040964100
CHUANGXIN 1-02 (CX-1-02)
1 33434U 08056B   26177.18276472  .00000033  00000+0  29547-4 0  9992
2 33434  98.6136 203.3599 0015392 111.7695 248.5127 14.30154451919908
STARS (KUKAI)           
1 33498U 09002G   26176.84860582  .00004009  00000+0  36459-3 0  9993
2 33498  98.1539 124.5107 0009379 135.1654 225.0325 14.95799915939770
